ONEWEB-0118             
1 47264U 20100G   23265.85320229  .00000380  00000+0  10202-2 0  9992
2 47264  87.9071 189.1109 0001274  63.4269 296.6990 13.12444546133776
ONEWEB-0119             
1 47265U 20100H   23265.80447451 -.00000237  00000+0 -69307-3 0  9999
2 47265  87.9070 189.1577 0002018  73.6117 286.5234 13.12440586133743
ONEWEB-0120             
1 47266U 20100J   23265.83519399 -.00000083  00000+0 -26524-3 0  9997
2 47266  87.9071 189.1411 0001751  70.2193 289.9124 13.12442044133771
ONEWEB-0121             
1 47267U 20100K   23265.81718905 -.00000432  00000+0 -12371-2 0  9992
2 47267  87.9070 189.1452 0002111  77.3379 282.7985 13.12444285133686
ONEWEB-0122             
1 47268U 20100L   23265.81082723 -.00000346  00000+0 -99729-3 0  9992
2 47268  87.9071 189.1497 0002025  69.4254 290.7092 13.12445008133597
ONEWEB-0123             
1 47269U 20100M   23265.80660469 -.00000194  00000+0 -57583-3 0  9994
2 47269  87.9071 189.1561 0001911  73.5238 286.6100 13.12442948133731
ONEWEB-0124             
1 47270U 20100N   23265.79389684  .00000205  00000+0  53475-3 0  9998
2 47270  87.9072 189.1552 0002253  78.0574 282.0807 13.12444129133611
ONEWEB-0125             
1 47271U 20100P   23265.84683771  .00000316  00000+0  84222-3 0  9996
2 47271  87.9006 189.1480 0001743  85.9429 274.1899 13.12446923133682
